{
    "links": {
        "self": "http://www.neowsapp.com/rest/v1/neo/3457434?api_key=iIulBulltgU6a56xZRHN4H3l9WmuAYTsLGpBGhQ2"
    },
    "id": "3457434",
    "neo_reference_id": "3457434",
    "name": "(2009 HR2)",
    "designation": "2009 HR2",
    "nasa_jpl_url": "http://ssd.jpl.nasa.gov/sbdb.cgi?sstr=3457434",
    "absolute_magnitude_h": 25.0,
    "estimated_diameter": {
        "kilometers": {
            "estimated_diameter_min": 0.02658,
            "estimated_diameter_max": 0.0594346868
        },
        "meters": {
            "estimated_diameter_min": 26.58,
            "estimated_diameter_max": 59.4346868419
        },
        "miles": {
            "estimated_diameter_min": 0.0165160412,
            "estimated_diameter_max": 0.0369309908
        },
        "feet": {
            "estimated_diameter_min": 87.2047272,
            "estimated_diameter_max": 194.9956979785
        }
    },
    "is_potentially_hazardous_asteroid": false,
    "close_approach_data": [
        {
            "close_approach_date": "2009-03-04",
            "close_approach_date_full": "2009-Mar-04 04:54",
            "epoch_date_close_approach": 1236142440000,
            "relative_velocity": {
                "kilometers_per_second": "9.91323241",
                "kilometers_per_hour": "35687.6366761052",
                "miles_per_hour": "22174.9095779944"
            },
            "miss_distance": {
                "astronomical": "0.084970361",
                "lunar": "33.053470429",
                "kilometers": "12711385.01873107",
                "miles": "7898488.392865966"
            },
            "orbiting_body": "Venus"
        },
        {
            "close_approach_date": "2009-04-09",
            "close_approach_date_full": "2009-Apr-09 12:26",
            "epoch_date_close_approach": 1239279960000,
            "relative_velocity": {
                "kilometers_per_second": "15.3229425854",
                "kilometers_per_hour": "55162.5933073183",
                "miles_per_hour": "34275.8902692057"
            },
            "miss_distance": {
                "astronomical": "0.0273075232",
                "lunar": "10.6226265248",
                "kilometers": "4085147.305695584",
                "miles": "2538392.8289196992"
            },
            "orbiting_body": "Earth"
        },
        {
            "close_approach_date": "2090-05-06",
            "close_approach_date_full": "2090-May-06 10:56",
            "epoch_date_close_approach": 3797751360000,
            "relative_velocity": {
                "kilometers_per_second": "17.1942070895",
                "kilometers_per_hour": "61899.145522061",
                "miles_per_hour": "38461.7218384162"
            },
            "miss_distance": {
                "astronomical": "0.0501560284",
                "lunar": "19.5106950476",
                "kilometers": "7503235.016299508",
                "miles": "4662294.0456808904"
            },
            "orbiting_body": "Mars"
        }
    ],
    "orbital_data": {
        "orbit_id": "8",
        "orbit_determination_date": "2017-04-06 09:00:47",
        "first_observation_date": "2009-04-18",
        "last_observation_date": "2009-04-27",
        "data_arc_in_days": 9,
        "observations_used": 30,
        "orbit_uncertainty": "9",
        "minimum_orbit_intersection": ".0271987",
        "jupiter_tisserand_invariant": "4.106",
        "epoch_osculation": "2454941.5",
        "eccentricity": ".5475223980431507",
        "semi_major_axis": "1.634579783802981",
        "inclination": "10.21080362953673",
        "ascending_node_longitude": "27.90873349422925",
        "orbital_period": "763.3217053264873",
        "perihelion_distance": ".7396107407823181",
        "perihelion_argument": "95.72222830391193",
        "aphelion_distance": "2.529548826823645",
        "perihelion_time": "2454881.553657545543",
        "mean_anomaly": "28.27206816341486",
        "mean_motion": ".4716229048485148",
        "equinox": "J2000",
        "orbit_class": {
            "orbit_class_type": "APO",
            "orbit_class_description": "Near-Earth asteroid orbits which cross the Earth’s orbit similar to that of 1862 Apollo",
            "orbit_class_range": "a (semi-major axis) > 1.0 AU; q (perihelion) < 1.017 AU"
        }
    },
    "is_sentry_object": false
}